SCS-01 D                
1 63985U 25100D   26068.75607686  .00032471  00000+0  10528-2 0  9990
2 63985  97.3730 145.4097 0006346 266.2302  93.8214 15.31902149 45621
STARLINK-34618          
1 64770U 25147R   26068.76124778  .00036273  00000+0  12309-2 0  9994
2 64770  53.1582 242.3526 0000764  48.9361 311.1706 15.30198566 38691
