[{"OBJECT_NAME":"SCS-01 D","OBJECT_ID":"2025-100D","EPOCH":"2026-03-09T18:08:45.040704","MEAN_MOTION":15.31902149,"ECCENTRICITY":0.00063457,"INCLINATION":97.373,"RA_OF_ASC_NODE":145.4097,"ARG_OF_PERICENTER":266.2302,"MEAN_ANOMALY":93.8214,"EPHEMERIS_TYPE":0,"CLASSIFICATION_TYPE":"U","NORAD_CAT_ID":63985,"ELEMENT_SET_NO":999,"REV_AT_EPOCH":4562,"BSTAR":0.0010528181,"MEAN_MOTION_DOT":0.00032471,"MEAN_MOTION_DDOT":0},{"OBJECT_NAME":"STARLINK-34618","OBJECT_ID":"2025-147R","EPOCH":"2026-03-09T18:16:11.809056","MEAN_MOTION":15.30198566,"ECCENTRICITY":7.638e-5,"INCLINATION":53.1582,"RA_OF_ASC_NODE":242.3526,"ARG_OF_PERICENTER":48.9361,"MEAN_ANOMALY":311.1706,"EPHEMERIS_TYPE":0,"CLASSIFICATION_TYPE":"U","NORAD_CAT_ID":64770,"ELEMENT_SET_NO":999,"REV_AT_EPOCH":3869,"BSTAR":0.0012308879,"MEAN_MOTION_DOT":0.00036273,"MEAN_MOTION_DDOT":0}]
